NOAA 15                 
1 25338U 98030A   23109.51097613  .00000408  00000+0  18806-3 0  9995
2 25338  98.6119 139.5560 0011457 122.4269 237.8021 14.26294557296645
NOAA 18                 
1 28654U 05018A   23109.43224441  .00000382  00000+0  22873-3 0  9995
2 28654  98.9116 184.1030 0014414 182.0779 178.0335 14.12915679923181
NOAA 19                 
1 33591U 09005A   23109.54021580  .00000364  00000+0  22060-3 0  9990
2 33591  99.1063 154.5135 0014570  51.3485 308.8987 14.12735532731409
METOP-B                 
1 38771U 12049A   23109.54750953  .00000041  00000+0  38502-4 0  9991
2 38771  98.6838 169.8871 0001221 119.4945   8.9150 14.21496409549224
SARAL                   
1 39086U 13009A   23109.55438867  .00000304  00000+0  12893-3 0  9992
2 39086  98.5484 295.6971 0003010  96.7150 263.4376 14.32177039530294
METOP-C                 
1 43689U 18087A   23109.55919826  .00000279  00000+0  14746-3 0  9996
2 43689  98.6883 170.0054 0002199 210.7732 149.3316 14.21490371230794
ANGELS                  
1 44876U 19092D   23109.46483297  .00008821  00000+0  40323-3 0  9991
2 44876  97.4777 294.5738 0011513  19.5406 340.6268 15.20731183184694
GAZELLE                 
1 54023U 22127A   23109.44723674 -.00000043  00000+0  00000+0 0  9996
2 54023  98.3221 108.8229 0014678  74.8598 285.4233 14.41804550 27916
EOS-6 (OCEANSAT-3)      
1 54361U 22158A   23109.37293505  .00001537  00000+0  43442-3 0  9991
2 54361  98.3471 207.1491 0001429  98.3576 261.7765 14.47010250 20832
